{
  "links" : {
    "next" : "https://api.nasa.gov/neo/rest/v1/feed?start_date=1996-01-23&end_date=1996-01-23&detailed=true&api_key=t0TVs3DtDT2H8Oy2Zy8m2eVrNsAVKAexjcZXUckd",
    "prev" : "https://api.nasa.gov/neo/rest/v1/feed?start_date=1996-01-21&end_date=1996-01-21&detailed=true&api_key=t0TVs3DtDT2H8Oy2Zy8m2eVrNsAVKAexjcZXUckd",
    "self" : "https://api.nasa.gov/neo/rest/v1/feed?start_date=1996-01-22&end_date=1996-01-22&detailed=true&api_key=t0TVs3DtDT2H8Oy2Zy8m2eVrNsAVKAexjcZXUckd"
  },
  "element_count" : 4,
  "near_earth_objects" : {
    "1996-01-22" : [ {
      "links" : {
        "self" : "https://api.nasa.gov/neo/rest/v1/neo/2267223?api_key=t0TVs3DtDT2H8Oy2Zy8m2eVrNsAVKAexjcZXUckd"
      },
      "neo_reference_id" : "2267223",
      "name" : "267223 (2001 DQ8)",
      "nasa_jpl_url" : "http://ssd.jpl.nasa.gov/sbdb.cgi?sstr=2267223",
      "absolute_magnitude_h" : 18.1,
      "estimated_diameter" : {
        "kilometers" : {
          "estimated_diameter_min" : 0.6376097899,
          "estimated_diameter_max" : 1.4257388333
        },
        "meters" : {
          "estimated_diameter_min" : 637.6097898754,
          "estimated_diameter_max" : 1425.7388332807
        },
        "miles" : {
          "estimated_diameter_min" : 0.3961922327,
          "estimated_diameter_max" : 0.8859127646
        },
        "feet" : {
          "estimated_diameter_min" : 2091.8957030147,
          "estimated_diameter_max" : 4677.6209937807
        }
      },
      "is_potentially_hazardous_asteroid" : false,
      "close_approach_data" : [ {
        "close_approach_date" : "1996-01-22",
        "epoch_date_close_approach" : 822297600000,
        "relative_velocity" : {
          "kilometers_per_second" : "24.3022599558",
          "kilometers_per_hour" : "87488.1358407929",
          "miles_per_hour" : "54361.7252950749"
        },
        "miss_distance" : {
          "astronomical" : "0.3724096571",
          "lunar" : "144.8673553467",
          "kilometers" : "55711696",
          "miles" : "34617640"
        },
        "orbiting_body" : "Earth"
      } ],
      "orbital_data" : {
        "orbit_id" : "65",
        "orbit_determination_date" : "2017-04-06 09:24:38",
        "orbit_uncertainty" : "0",
        "minimum_orbit_intersection" : ".106558",
        "jupiter_tisserand_invariant" : "3.327",
        "epoch_osculation" : "2458000.5",
        "eccentricity" : ".9009731529779084",
        "semi_major_axis" : "1.842706954621161",
        "inclination" : "12.79057410499854",
        "ascending_node_longitude" : "342.7271352124852",
        "orbital_period" : "913.6562707105129",
        "perihelion_distance" : ".1824774597018141",
        "perihelion_argument" : "14.77481046733027",
        "aphelion_distance" : "3.502936449540508",
        "perihelion_time" : "2458278.170150727706",
        "mean_anomaly" : "250.5920558239716",
        "mean_motion" : ".3940212654809919",
        "equinox" : "J2000"
      }
    }, {
      "links" : {
        "self" : "https://api.nasa.gov/neo/rest/v1/neo/3670292?api_key=t0TVs3DtDT2H8Oy2Zy8m2eVrNsAVKAexjcZXUckd"
      },
      "neo_reference_id" : "3670292",
      "name" : "(2014 HR184)",
      "nasa_jpl_url" : "http://ssd.jpl.nasa.gov/sbdb.cgi?sstr=3670292",
      "absolute_magnitude_h" : 19.9,
      "estimated_diameter" : {
        "kilometers" : {
          "estimated_diameter_min" : 0.2783267681,
          "estimated_diameter_max" : 0.6223575734
        },
        "meters" : {
          "estimated_diameter_min" : 278.3267680719,
          "estimated_diameter_max" : 622.3575733667
        },
        "miles" : {
          "estimated_diameter_min" : 0.1729441822,
          "estimated_diameter_max" : 0.3867149477
        },
        "feet" : {
          "estimated_diameter_min" : 913.1455937611,
          "estimated_diameter_max" : 2041.8556210042
        }
      },
      "is_potentially_hazardous_asteroid" : false,
      "close_approach_data" : [ {
        "close_approach_date" : "1996-01-22",
        "epoch_date_close_approach" : 822297600000,
        "relative_velocity" : {
          "kilometers_per_second" : "16.1366811697",
          "kilometers_per_hour" : "58092.0522109607",
          "miles_per_hour" : "36096.1421085272"
        },
        "miss_distance" : {
          "astronomical" : "0.2885678161",
          "lunar" : "112.2528762817",
          "kilometers" : "43169132",
          "miles" : "26824054"
        },
        "orbiting_body" : "Earth"
      } ],
      "orbital_data" : {
        "orbit_id" : "20",
        "orbit_determination_date" : "2017-07-12 06:17:22",
        "orbit_uncertainty" : "2",
        "minimum_orbit_intersection" : ".10218",
        "jupiter_tisserand_invariant" : "4.927",
        "epoch_osculation" : "2458000.5",
        "eccentricity" : ".3297933548055876",
        "semi_major_axis" : "1.296322565902411",
        "inclination" : "14.33285505093556",
        "ascending_node_longitude" : "253.4348740768568",
        "orbital_period" : "539.0984070641229",
        "perihelion_distance" : ".8688039979832675",
        "perihelion_argument" : "165.1484126740222",
        "aphelion_distance" : "1.723841133821554",
        "perihelion_time" : "2458157.748342641465",
        "mean_anomaly" : "254.9924492279307",
        "mean_motion" : ".6677816058862514",
        "equinox" : "J2000"
      }
    }, {
      "links" : {
        "self" : "https://api.nasa.gov/neo/rest/v1/neo/3732504?api_key=t0TVs3DtDT2H8Oy2Zy8m2eVrNsAVKAexjcZXUckd"
      },
      "neo_reference_id" : "3732504",
      "name" : "(2015 UA52)",
      "nasa_jpl_url" : "http://ssd.jpl.nasa.gov/sbdb.cgi?sstr=3732504",
      "absolute_magnitude_h" : 22.5,
      "estimated_diameter" : {
        "kilometers" : {
          "estimated_diameter_min" : 0.0840533402,
          "estimated_diameter_max" : 0.1879489824
        },
        "meters" : {
          "estimated_diameter_min" : 84.0533402073,
          "estimated_diameter_max" : 187.9489824394
        },
        "miles" : {
          "estimated_diameter_min" : 0.0522283081,
          "estimated_diameter_max" : 0.1167860472
        },
        "feet" : {
          "estimated_diameter_min" : 275.7655606856,
          "estimated_diameter_max" : 616.6305395464
        }
      },
      "is_potentially_hazardous_asteroid" : false,
      "close_approach_data" : [ {
        "close_approach_date" : "1996-01-22",
        "epoch_date_close_approach" : 822297600000,
        "relative_velocity" : {
          "kilometers_per_second" : "7.4807117041",
          "kilometers_per_hour" : "26930.5621348431",
          "miles_per_hour" : "16733.6040109529"
        },
        "miss_distance" : {
          "astronomical" : "0.4608234437",
          "lunar" : "179.2603149414",
          "kilometers" : "68938208",
          "miles" : "42836216"
        },
        "orbiting_body" : "Earth"
      } ],
      "orbital_data" : {
        "orbit_id" : "13",
        "orbit_determination_date" : "2017-04-06 08:31:08",
        "orbit_uncertainty" : "5",
        "minimum_orbit_intersection" : ".00594609",
        "jupiter_tisserand_invariant" : "5.532",
        "epoch_osculation" : "2458000.5",
        "eccentricity" : ".1948901870201531",
        "semi_major_axis" : "1.117603117947594",
        "inclination" : "15.53997790281356",
        "ascending_node_longitude" : "194.4303121144344",
        "orbital_period" : "431.5487211466778",
        "perihelion_distance" : ".8997932372764808",
        "perihelion_argument" : "110.5557197362717",
        "aphelion_distance" : "1.335412998618706",
        "perihelion_time" : "2458100.382223439637",
        "mean_anomaly" : "276.6777731544987",
        "mean_motion" : ".8342047661349474",
        "equinox" : "J2000"
      }
    }, {
      "links" : {
        "self" : "https://api.nasa.gov/neo/rest/v1/neo/3744790?api_key=t0TVs3DtDT2H8Oy2Zy8m2eVrNsAVKAexjcZXUckd"
      },
      "neo_reference_id" : "3744790",
      "name" : "(2016 DL)",
      "nasa_jpl_url" : "http://ssd.jpl.nasa.gov/sbdb.cgi?sstr=3744790",
      "absolute_magnitude_h" : 21.3,
      "estimated_diameter" : {
        "kilometers" : {
          "estimated_diameter_min" : 0.1460679643,
          "estimated_diameter_max" : 0.3266178974
        },
        "meters" : {
          "estimated_diameter_min" : 146.0679642714,
          "estimated_diameter_max" : 326.6178974458
        },
        "miles" : {
          "estimated_diameter_min" : 0.090762397,
          "estimated_diameter_max" : 0.2029508896
        },
        "feet" : {
          "estimated_diameter_min" : 479.2256199,
          "estimated_diameter_max" : 1071.581062656
        }
      },
      "is_potentially_hazardous_asteroid" : true,
      "close_approach_data" : [ {
        "close_approach_date" : "1996-01-22",
        "epoch_date_close_approach" : 822297600000,
        "relative_velocity" : {
          "kilometers_per_second" : "23.5889568587",
          "kilometers_per_hour" : "84920.2446914345",
          "miles_per_hour" : "52766.1375972972"
        },
        "miss_distance" : {
          "astronomical" : "0.2910815542",
          "lunar" : "113.23072052",
          "kilometers" : "43545180",
          "miles" : "27057720"
        },
        "orbiting_body" : "Earth"
      } ],
      "orbital_data" : {
        "orbit_id" : "6",
        "orbit_determination_date" : "2017-04-06 08:28:07",
        "orbit_uncertainty" : "3",
        "minimum_orbit_intersection" : ".0463696",
        "jupiter_tisserand_invariant" : "7.883",
        "epoch_osculation" : "2458000.5",
        "eccentricity" : ".4710774057331394",
        "semi_major_axis" : ".7142123806368134",
        "inclination" : "23.86194498791281",
        "ascending_node_longitude" : "290.1493206992338",
        "orbital_period" : "220.4649165343847",
        "perihelion_distance" : ".3777630652239338",
        "perihelion_argument" : "33.14602213699401",
        "aphelion_distance" : "1.050661696049693",
        "perihelion_time" : "2457985.764379979876",
        "mean_anomaly" : "24.06198360552845",
        "mean_motion" : "1.632912871848491",
        "equinox" : "J2000"
      }
    } ]
  }
}